STARLINK-1835
1 46782U 20074AV  26061.11456670  .00110536  00000+0  15115-2 0  9995
2 46782  53.0475 311.5882 0005274   4.1256 355.9798 15.56599171296155
